[
    {
        "pincode":"125052",
        "districtName": "Hisar",
        "name": "Sunil",
        "feeType": "Free",
        "stateName": "Haryana",
        "vaccine": "Covaxin",
        "ageLimit": "19",
        "slots": "10:00AM-11:00AM"
    },
    {
        "pincode":"125052",
        "districtName": "Hisar",
        "name": "Sunil",
        "feeType": "Free",
        "stateName": "Haryana",
        "vaccine": "Covaxin",
        "ageLimit": "19",
        "slots": "10:00AM-11:00AM"
    },
    {
        "pincode":"125052",
        "districtName": "Hisar",
        "name": "Sunil",
        "feeType": "Free",
        "stateName": "Haryana",
        "vaccine": "Covaxin",
        "ageLimit": "19",
        "slots": "10:00AM-11:00AM"
    },
    {
        "pincode":"125052",
        "districtName": "Hisar",
        "name": "Sunil",
        "feeType": "Free",
        "stateName": "Haryana",
        "vaccine": "Covaxin",
        "ageLimit": "19",
        "slots": "10:00AM-11:00AM"
    },
    {
        "pincode":"125052",
        "districtName": "Hisar",
        "name": "Sunil",
        "feeType": "Free",
        "stateName": "Haryana",
        "vaccine": "Covaxin",
        "ageLimit": "19",
        "slots": "10:00AM-11:00AM"
    },
    {
        "pincode":"125052",
        "districtName": "Hisar",
        "name": "Sunil",
        "feeType": "Free",
        "stateName": "Haryana",
        "vaccine": "Covaxin",
        "ageLimit": "19",
        "slots": "10:00AM-11:00AM"
    },
    {
        "pincode":"125052",
        "districtName": "Hisar",
        "name": "Sunil",
        "feeType": "Free",
        "stateName": "Haryana",
        "vaccine": "Covaxin",
        "ageLimit": "19",
        "slots": "10:00AM-11:00AM"
    },
    {
        "pincode":"125052",
        "districtName": "Hisar",
        "name": "Sunil",
        "feeType": "Free",
        "stateName": "Haryana",
        "vaccine": "Covaxin",
        "ageLimit": "19",
        "slots": "10:00AM-11:00AM"
    },
    {
        "pincode":"125052",
        "districtName": "Hisar",
        "name": "Sunil",
        "feeType": "Free",
        "stateName": "Haryana",
        "vaccine": "Covaxin",
        "ageLimit": "19",
        "slots": "10:00AM-11:00AM"
    }
    
    
]
